HST                     
1 20580U 90037B   26073.51012837  .00010115  00000+0  33490-3 0  9998
2 20580  28.4725   7.1142 0001767 174.4342 185.6273 15.29568851774051
POLAR                   
1 23802U 96013A   26072.52935318  .00000230  00000+0  00000+0 0  9990
2 23802  79.7558 228.1473 6373426 212.3300  84.2673  1.29845770143615
SWAS                    
1 25560U 98071A   26073.50675351  .00004530  00000+0  29288-3 0  9996
2 25560  69.8953 111.5581 0004435   3.6086 356.5109 15.08930710482985
CXO                     
1 25867U 99040B   26074.17591503  .00001098  00000+0  00000+0 0  9996
2 25867  54.6015 119.5309 7987924 310.6410   0.3950  0.37797975 16963
XMM-NEWTON              
1 25989U 99066A   26073.60830429  .00000188  00000+0  00000+0 0  9998
2 25989  64.9635 284.2156 4708982  66.5664   0.0242  0.50129949 22525
TERRA                   
1 25994U 99068A   26073.66505179  .00000525  00000+0  11608-3 0  9998
2 25994  97.9583 126.9095 0002996 140.3198  19.5937 14.61020819395807
CLUSTER II-FM7 (SAMBA)  
1 26410U 00041A   26072.18498853  .00009157  00000+0  00000+0 0  9991
2 26410 149.0994  35.5717 8921020 251.7870   0.4837  0.44824009 19879
CLUSTER II-FM8 (TANGO)  
1 26464U 00045B   26049.06287974  .00004776  00000+0  00000+0 0  9997
2 26464 149.0711  33.5376 8890045 249.4570 359.4916  0.44405995 19769
ODIN                    
1 26702U 01007A   26073.60532850  .00057396  00000+0  73033-3 0  9990
2 26702  97.4071 109.8542 0004983 130.8471 229.3218 15.59170917374606
TIMED                   
1 26998U 01055B   26073.39705846  .00001724  00000+0  16102-3 0  9991
2 26998  74.0665  65.8442 0002995 269.7066  90.3775 14.95039433316657
CORIOLIS                
1 27640U 03001A   26073.56184156  .00000186  00000+0  10815-3 0  9999
2 27640  98.7160  81.8812 0014953 123.2458 237.0154 14.19914947200796
SORCE                   
1 27651U 03004A   26073.48285762  .00004649  00000+0  34822-3 0  9992
2 27651  39.9905  81.7782 0015650  92.1257 268.1329 15.03138495257648
MOST                    
1 27843U 03031D   26073.59742025  .00000116  00000+0  73181-4 0  9994
2 27843  98.7081  82.6317 0010193 159.7876 200.3707 14.21300800177275
SCISAT 1                
1 27858U 03036A   26073.20787706  .00001019  00000+0  13512-3 0  9992
2 27858  73.9328   0.0390 0005835  86.1558 274.0285 14.81323042217387
SWIFT                   
1 28485U 04047A   26073.47073570  .00052920  00000+0  61999-3 0  9997
2 28485  20.5522 190.8071 0004522  76.4873 283.6075 15.59735122172011
HINODE (SOLAR-B)        
1 29479U 06041A   26073.54569244  .00000832  00000+0  15177-3 0  9995
2 29479  98.0618  91.0733 0016522 225.1321 134.8543 14.68482959 40985
SHIJIAN-6 02A (SJ-6 02A)
1 29505U 06046A   26073.59659275  .00010040  00000+0  52907-3 0  9993
2 29505  97.6493 113.9752 0004711 101.9861 258.1900 15.15784587 57938
