[{"OBJECT_NAME":"HST","OBJECT_ID":"1990-037B","EPOCH":"2026-03-14T12:14:35.091168","MEAN_MOTION":15.29568851,"ECCENTRICITY":0.0001767,"INCLINATION":28.4725,"RA_OF_ASC_NODE":7.1142,"ARG_OF_PERICENTER":174.4342,"MEAN_ANOMALY":185.6273,"EPHEMERIS_TYPE":0,"CLASSIFICATION_TYPE":"U","NORAD_CAT_ID":20580,"ELEMENT_SET_NO":999,"REV_AT_EPOCH":77405,"BSTAR":0.00033489905,"MEAN_MOTION_DOT":0.00010115,"MEAN_MOTION_DDOT":0},{"OBJECT_NAME":"POLAR","OBJECT_ID":"1996-013A","EPOCH":"2026-03-13T12:42:16.114752","MEAN_MOTION":1.2984577,"ECCENTRICITY":0.63734265,"INCLINATION":79.7558,"RA_OF_ASC_NODE":228.1473,"ARG_OF_PERICENTER":212.33,"MEAN_ANOMALY":84.2673,"EPHEMERIS_TYPE":0,"CLASSIFICATION_TYPE":"U","NORAD_CAT_ID":23802,"ELEMENT_SET_NO":999,"REV_AT_EPOCH":14361,"BSTAR":0,"MEAN_MOTION_DOT":2.3e-6,"MEAN_MOTION_DDOT":0},{"OBJECT_NAME":"SWAS","OBJECT_ID":"1998-071A","EPOCH":"2026-03-14T12:09:43.503264","MEAN_MOTION":15.0893071,"ECCENTRICITY":0.00044354,"INCLINATION":69.8953,"RA_OF_ASC_NODE":111.5581,"ARG_OF_PERICENTER":3.6086,"MEAN_ANOMALY":356.5109,"EPHEMERIS_TYPE":0,"CLASSIFICATION_TYPE":"U","NORAD_CAT_ID":25560,"ELEMENT_SET_NO":999,"REV_AT_EPOCH":48298,"BSTAR":0.00029287904,"MEAN_MOTION_DOT":4.53e-5,"MEAN_MOTION_DDOT":0},{"OBJECT_NAME":"CXO","OBJECT_ID":"1999-040B","EPOCH":"2026-03-15T04:13:19.058592","MEAN_MOTION":0.37797975,"ECCENTRICITY":0.7987924,"INCLINATION":54.6015,"RA_OF_ASC_NODE":119.5309,"ARG_OF_PERICENTER":310.641,"MEAN_ANOMALY":0.395,"EPHEMERIS_TYPE":0,"CLASSIFICATION_TYPE":"U","NORAD_CAT_ID":25867,"ELEMENT_SET_NO":999,"REV_AT_EPOCH":1696,"BSTAR":0,"MEAN_MOTION_DOT":1.098e-5,"MEAN_MOTION_DDOT":0},{"OBJECT_NAME":"XMM-NEWTON","OBJECT_ID":"1999-066A","EPOCH":"2026-03-14T14:35:57.490656","MEAN_MOTION":0.50129949,"ECCENTRICITY":0.4708982,"INCLINATION":64.9635,"RA_OF_ASC_NODE":284.2156,"ARG_OF_PERICENTER":66.5664,"MEAN_ANOMALY":0.0242,"EPHEMERIS_TYPE":0,"CLASSIFICATION_TYPE":"U","NORAD_CAT_ID":25989,"ELEMENT_SET_NO":999,"REV_AT_EPOCH":2252,"BSTAR":0,"MEAN_MOTION_DOT":1.88e-6,"MEAN_MOTION_DDOT":0},{"OBJECT_NAME":"TERRA","OBJECT_ID":"1999-068A","EPOCH":"2026-03-14T15:57:40.474656","MEAN_MOTION":14.61020819,"ECCENTRICITY":0.00029962,"INCLINATION":97.9583,"RA_OF_ASC_NODE":126.9095,"ARG_OF_PERICENTER":140.3198,"MEAN_ANOMALY":19.5937,"EPHEMERIS_TYPE":0,"CLASSIFICATION_TYPE":"U","NORAD_CAT_ID":25994,"ELEMENT_SET_NO":999,"REV_AT_EPOCH":39580,"BSTAR":0.0001160804,"MEAN_MOTION_DOT":5.25e-6,"MEAN_MOTION_DDOT":0},{"OBJECT_NAME":"CLUSTER II-FM7 (SAMBA)","OBJECT_ID":"2000-041A","EPOCH":"2026-03-13T04:26:23.008992","MEAN_MOTION":0.44824009,"ECCENTRICITY":0.892102,"INCLINATION":149.0994,"RA_OF_ASC_NODE":35.5717,"ARG_OF_PERICENTER":251.787,"MEAN_ANOMALY":0.4837,"EPHEMERIS_TYPE":0,"CLASSIFICATION_TYPE":"U","NORAD_CAT_ID":26410,"ELEMENT_SET_NO":999,"REV_AT_EPOCH":1987,"BSTAR":0,"MEAN_MOTION_DOT":9.157e-5,"MEAN_MOTION_DDOT":0},{"OBJECT_NAME":"CLUSTER II-FM8 (TANGO)","OBJECT_ID":"2000-045B","EPOCH":"2026-02-18T01:30:32.809536","MEAN_MOTION":0.44405995,"ECCENTRICITY":0.88900451,"INCLINATION":149.0711,"RA_OF_ASC_NODE":33.5376,"ARG_OF_PERICENTER":249.457,"MEAN_ANOMALY":359.4916,"EPHEMERIS_TYPE":0,"CLASSIFICATION_TYPE":"U","NORAD_CAT_ID":26464,"ELEMENT_SET_NO":999,"REV_AT_EPOCH":1976,"BSTAR":0,"MEAN_MOTION_DOT":4.776e-5,"MEAN_MOTION_DDOT":0},{"OBJECT_NAME":"ODIN","OBJECT_ID":"2001-007A","EPOCH":"2026-03-14T14:31:40.382400","MEAN_MOTION":15.59170917,"ECCENTRICITY":0.00049836,"INCLINATION":97.4071,"RA_OF_ASC_NODE":109.8542,"ARG_OF_PERICENTER":130.8471,"MEAN_ANOMALY":229.3218,"EPHEMERIS_TYPE":0,"CLASSIFICATION_TYPE":"U","NORAD_CAT_ID":26702,"ELEMENT_SET_NO":999,"REV_AT_EPOCH":37460,"BSTAR":0.00073032556,"MEAN_MOTION_DOT":0.00057396,"MEAN_MOTION_DDOT":0},{"OBJECT_NAME":"TIMED","OBJECT_ID":"2001-055B","EPOCH":"2026-03-14T09:31:45.850944","MEAN_MOTION":14.95039433,"ECCENTRICITY":0.0002995,"INCLINATION":74.0665,"RA_OF_ASC_NODE":65.8442,"ARG_OF_PERICENTER":269.7066,"MEAN_ANOMALY":90.3775,"EPHEMERIS_TYPE":0,"CLASSIFICATION_TYPE":"U","NORAD_CAT_ID":26998,"ELEMENT_SET_NO":999,"REV_AT_EPOCH":31665,"BSTAR":0.00016101674,"MEAN_MOTION_DOT":1.724e-5,"MEAN_MOTION_DDOT":0},{"OBJECT_NAME":"CORIOLIS","OBJECT_ID":"2003-001A","EPOCH":"2026-03-14T13:29:03.110784","MEAN_MOTION":14.19914947,"ECCENTRICITY":0.00149537,"INCLINATION":98.716,"RA_OF_ASC_NODE":81.8812,"ARG_OF_PERICENTER":123.2458,"MEAN_ANOMALY":237.0154,"EPHEMERIS_TYPE":0,"CLASSIFICATION_TYPE":"U","NORAD_CAT_ID":27640,"ELEMENT_SET_NO":999,"REV_AT_EPOCH":20079,"BSTAR":0.00010814887,"MEAN_MOTION_DOT":1.86e-6,"MEAN_MOTION_DDOT":0},{"OBJECT_NAME":"SORCE","OBJECT_ID":"2003-004A","EPOCH":"2026-03-14T11:35:18.898368","MEAN_MOTION":15.03138495,"ECCENTRICITY":0.00156506,"INCLINATION":39.9905,"RA_OF_ASC_NODE":81.7782,"ARG_OF_PERICENTER":92.1257,"MEAN_ANOMALY":268.1329,"EPHEMERIS_TYPE":0,"CLASSIFICATION_TYPE":"U","NORAD_CAT_ID":27651,"ELEMENT_SET_NO":999,"REV_AT_EPOCH":25764,"BSTAR":0.00034822457,"MEAN_MOTION_DOT":4.649e-5,"MEAN_MOTION_DDOT":0},{"OBJECT_NAME":"MOST","OBJECT_ID":"2003-031D","EPOCH":"2026-03-14T14:20:17.109600","MEAN_MOTION":14.213008,"ECCENTRICITY":0.00101932,"INCLINATION":98.7081,"RA_OF_ASC_NODE":82.6317,"ARG_OF_PERICENTER":159.7876,"MEAN_ANOMALY":200.3707,"EPHEMERIS_TYPE":0,"CLASSIFICATION_TYPE":"U","NORAD_CAT_ID":27843,"ELEMENT_SET_NO":999,"REV_AT_EPOCH":17727,"BSTAR":7.3180681e-5,"MEAN_MOTION_DOT":1.16e-6,"MEAN_MOTION_DDOT":0},{"OBJECT_NAME":"SCISAT 1","OBJECT_ID":"2003-036A","EPOCH":"2026-03-14T04:59:20.577984","MEAN_MOTION":14.81323042,"ECCENTRICITY":0.00058357,"INCLINATION":73.9328,"RA_OF_ASC_NODE":0.039,"ARG_OF_PERICENTER":86.1558,"MEAN_ANOMALY":274.0285,"EPHEMERIS_TYPE":0,"CLASSIFICATION_TYPE":"U","NORAD_CAT_ID":27858,"ELEMENT_SET_NO":999,"REV_AT_EPOCH":21738,"BSTAR":0.00013511618,"MEAN_MOTION_DOT":1.019e-5,"MEAN_MOTION_DDOT":0},{"OBJECT_NAME":"SWIFT","OBJECT_ID":"2004-047A","EPOCH":"2026-03-14T11:17:51.564480","MEAN_MOTION":15.59735122,"ECCENTRICITY":0.00045225,"INCLINATION":20.5522,"RA_OF_ASC_NODE":190.8071,"ARG_OF_PERICENTER":76.4873,"MEAN_ANOMALY":283.6075,"EPHEMERIS_TYPE":0,"CLASSIFICATION_TYPE":"U","NORAD_CAT_ID":28485,"ELEMENT_SET_NO":999,"REV_AT_EPOCH":17201,"BSTAR":0.00061998956,"MEAN_MOTION_DOT":0.0005292,"MEAN_MOTION_DDOT":0},{"OBJECT_NAME":"HINODE (SOLAR-B)","OBJECT_ID":"2006-041A","EPOCH":"2026-03-14T13:05:47.826816","MEAN_MOTION":14.68482959,"ECCENTRICITY":0.00165223,"INCLINATION":98.0618,"RA_OF_ASC_NODE":91.0733,"ARG_OF_PERICENTER":225.1321,"MEAN_ANOMALY":134.8543,"EPHEMERIS_TYPE":0,"CLASSIFICATION_TYPE":"U","NORAD_CAT_ID":29479,"ELEMENT_SET_NO":999,"REV_AT_EPOCH":4098,"BSTAR":0.00015177227,"MEAN_MOTION_DOT":8.32e-6,"MEAN_MOTION_DDOT":0},{"OBJECT_NAME":"SHIJIAN-6 02A (SJ-6 02A)","OBJECT_ID":"2006-046A","EPOCH":"2026-03-14T14:19:05.613600","MEAN_MOTION":15.15784587,"ECCENTRICITY":0.00047111,"INCLINATION":97.6493,"RA_OF_ASC_NODE":113.9752,"ARG_OF_PERICENTER":101.9861,"MEAN_ANOMALY":258.19,"EPHEMERIS_TYPE":0,"CLASSIFICATION_TYPE":"U","NORAD_CAT_ID":29505,"ELEMENT_SET_NO":999,"REV_AT_EPOCH":5793,"BSTAR":0.00052907323,"MEAN_MOTION_DOT":0.0001004,"MEAN_MOTION_DDOT":0}]
